{"type": "FeatureCollection", "features": [ {"type": "Feature", "properties": {"norad_id": 66436, "name": "STARLINK-35501", "group": "last-30-days", "lat": 40.14751527886151, "lon": 144.74165243093717, "alt_km": 409.6628120615924, "timestamp": "2025-12-07T03:52:31.202782+00:00", "meta": {"OBJECT_NAME": "STARLINK-35501", "OBJECT_ID": "2025-259Q", "EPOCH": "2025-12-06T15:12:14.592672", "MEAN_MOTION": 15.50648591, "ECCENTRICITY": 0.00027231, "INCLINATION": 43.001, "RA_OF_ASC_NODE": 82.9871, "ARG_OF_PERICENTER": 267.8361, "MEAN_ANOMALY": 92.2187, "EPHEMERIS_TYPE": 0, "CLASSIFICATION_TYPE": "U", "NORAD_CAT_ID": 66436, "ELEMENT_SET_NO": 999, "REV_AT_EPOCH": 522, "BSTAR": 0.0027237366, "MEAN_MOTION_DOT": 0.00163234, "MEAN_MOTION_DDOT": 0}, "tle": {"line1": "1 66436U 25259Q   25340.63350223  .00163234  00000+0  27237-2 0  9997", "line2": "2 66436  43.0010  82.9871 0002723 267.8361  92.2187 15.50648591  5229"}}, "geometry": {"type": "Point", "coordinates": [144.74165243093717, 40.14751527886151]}}, {"type": "Feature", "properties": {"norad_id": 66437, "name": "STARLINK-35474", "group": "last-30-days", "lat": 40.675794027504374, "lon": 147.14598703205607, "alt_km": 408.7507162584898, "timestamp": "2025-12-07T03:52:31.202792+00:00", "meta": {"OBJECT_NAME": "STARLINK-35474", "OBJECT_ID": "2025-259R", "EPOCH": "2025-12-06T13:38:59.664768", "MEAN_MOTION": 15.5063547, "ECCENTRICITY": 0.00013204, "INCLINATION": 43.0007, "RA_OF_ASC_NODE": 83.3599, "ARG_OF_PERICENTER": 274.8396, "MEAN_ANOMALY": 85.2313, "EPHEMERIS_TYPE": 0, "CLASSIFICATION_TYPE": "U", "NORAD_CAT_ID": 66437, "ELEMENT_SET_NO": 999, "REV_AT_EPOCH": 521, "BSTAR": 0.0021597842, "MEAN_MOTION_DOT": 0.00128725, "MEAN_MOTION_DDOT": 0}, "tle": {"line1": "1 66437U 25259R   25340.56874612  .00128725  00000+0  21598-2 0  9993", "line2": "2 66437  43.0007  83.3599 0001320 274.8396  85.2313 15.50635470  5210"}}, "geometry": {"type": "Point", "coordinates": [147.14598703205607, 40.675794027504374]}}, {"type": "Feature", "properties": {"norad_id": 66438, "name": "STARLINK-34681", "group": "last-30-days", "lat": 41.21480748849243, "lon": 149.9260472627637, "alt_km": 408.6263397879911, "timestamp": "2025-12-07T03:52:31.202802+00:00", "meta": {"OBJECT_NAME": "STARLINK-34681", "OBJECT_ID": "2025-259S", "EPOCH": "2025-12-06T13:38:30.180768", "MEAN_MOTION": 15.5073296, "ECCENTRICITY": 0.00018147, "INCLINATION": 43.0007, "RA_OF_ASC_NODE": 83.3579, "ARG_OF_PERICENTER": 250.1755, "MEAN_ANOMALY": 109.8909, "EPHEMERIS_TYPE": 0, "CLASSIFICATION_TYPE": "U", "NORAD_CAT_ID": 66438, "ELEMENT_SET_NO": 999, "REV_AT_EPOCH": 510, "BSTAR": 0.0029956602, "MEAN_MOTION_DOT": 0.00180499, "MEAN_MOTION_DDOT": 0}, "tle": {"line1": "1 66438U 25259S   25340.56840487  .00180499  00000+0  29957-2 0  9990", "line2": "2 66438  43.0007  83.3579 0001814 250.1755 109.8909 15.50732960  5107"}}, "geometry": {"type": "Point", "coordinates": [149.9260472627637, 41.21480748849243]}}, {"type": "Feature", "properties": {"norad_id": 66439, "name": "STARLINK-35327", "group": "last-30-days", "lat": 39.560677588036384, "lon": 142.33904435497524, "alt_km": 409.16363471517616, "timestamp": "2025-12-07T03:52:31.202813+00:00", "meta": {"OBJECT_NAME": "STARLINK-35327", "OBJECT_ID": "2025-259T", "EPOCH": "2025-12-06T13:39:59.056128", "MEAN_MOTION": 15.5062834, "ECCENTRICITY": 0.00019643, "INCLINATION": 43.0015, "RA_OF_ASC_NODE": 83.3681, "ARG_OF_PERICENTER": 282.6059, "MEAN_ANOMALY": 77.4582, "EPHEMERIS_TYPE": 0, "CLASSIFICATION_TYPE": "U", "NORAD_CAT_ID": 66439, "ELEMENT_SET_NO": 999, "REV_AT_EPOCH": 521, "BSTAR": 0.0023321839, "MEAN_MOTION_DOT": 0.00139182, "MEAN_MOTION_DDOT": 0}, "tle": {"line1": "1 66439U 25259T   25340.56943352  .00139182  00000+0  23322-2 0  9999", "line2": "2 66439  43.0015  83.3681 0001964 282.6059  77.4582 15.50628340  5219"}}, "geometry": {"type": "Point", "coordinates": [142.33904435497524, 39.560677588036384]}}, {"type": "Feature", "properties": {"norad_id": 66440, "name": "STARLINK-35405", "group": "last-30-days", "lat": 41.906063300799474, "lon": 154.25717446241475, "alt_km": 407.855760925132, "timestamp": "2025-12-07T03:52:31.202825+00:00", "meta": {"OBJECT_NAME": "STARLINK-35405", "OBJECT_ID": "2025-259U", "EPOCH": "2025-12-05T08:15:37.425888", "MEAN_MOTION": 15.50623801, "ECCENTRICITY": 0.00020429, "INCLINATION": 43.0001, "RA_OF_ASC_NODE": 90.5135, "ARG_OF_PERICENTER": 280.0264, "MEAN_ANOMALY": 80.0366, "EPHEMERIS_TYPE": 0, "CLASSIFICATION_TYPE": "U", "NORAD_CAT_ID": 66440, "ELEMENT_SET_NO": 999, "REV_AT_EPOCH": 502, "BSTAR": 0.0023681414, "MEAN_MOTION_DOT": 0.0014135, "MEAN_MOTION_DDOT": 0}, "tle": {"line1": "1 66440U 25259U   25339.34418317  .00141350  00000+0  23681-2 0  9991", "line2": "2 66440  43.0001  90.5135 0002042 280.0264  80.0366 15.50623801  5024"}}, "geometry": {"type": "Point", "coordinates": [154.25717446241475, 41.906063300799474]}}, {"type": "Feature", "properties": {"norad_id": 66441, "name": "STARLINK-35426", "group": "last-30-days", "lat": 42.280274307785625, "lon": 157.2396602609548, "alt_km": 407.75816161926286, "timestamp": "2025-12-07T03:52:31.202836+00:00", "meta": {"OBJECT_NAME": "STARLINK-35426", "OBJECT_ID": "2025-259V", "EPOCH": "2025-12-05T08:15:07.746624", "MEAN_MOTION": 15.50636009, "ECCENTRICITY": 0.00024039, "INCLINATION": 43, "RA_OF_ASC_NODE": 90.5091, "ARG_OF_PERICENTER": 280.7143, "MEAN_ANOMALY": 79.3447, "EPHEMERIS_TYPE": 0, "CLASSIFICATION_TYPE": "U", "NORAD_CAT_ID": 66441, "ELEMENT_SET_NO": 999, "REV_AT_EPOCH": 502, "BSTAR": 0.0027168775, "MEAN_MOTION_DOT": 0.00162736, "MEAN_MOTION_DDOT": 0}, "tle": {"line1": "1 66441U 25259V   25339.34383966  .00162736  00000+0  27169-2 0  9999", "line2": "2 66441  43.0000  90.5091 0002403 280.7143  79.3447 15.50636009  5024"}}, "geometry": {"type": "Point", "coordinates": [157.2396602609548, 42.280274307785625]}}, {"type": "Feature", "properties": {"norad_id": 66442, "name": "STARLINK-34724", "group": "last-30-days", "lat": 42.31573449776778, "lon": 157.56280201857098, "alt_km": 408.1125257954418, "timestamp": "2025-12-07T03:52:31.202846+00:00", "meta": {"OBJECT_NAME": "STARLINK-34724", "OBJECT_ID": "2025-259W", "EPOCH": "2025-12-06T13:37:01.226784", "MEAN_MOTION": 15.50746054, "ECCENTRICITY": 0.00014223, "INCLINATION": 43.0003, "RA_OF_ASC_NODE": 83.3503, "ARG_OF_PERICENTER": 255.0351, "MEAN_ANOMALY": 105.0352, "EPHEMERIS_TYPE": 0, "CLASSIFICATION_TYPE": "U", "NORAD_CAT_ID": 66442, "ELEMENT_SET_NO": 999, "REV_AT_EPOCH": 521, "BSTAR": 0.0031841465, "MEAN_MOTION_DOT": 0.00192258, "MEAN_MOTION_DDOT": 0}, "tle": {"line1": "1 66442U 25259W   25340.56737531  .00192258  00000+0  31841-2 0  9991", "line2": "2 66442  43.0003  83.3503 0001422 255.0351 105.0352 15.50746054  5217"}}, "geometry": {"type": "Point", "coordinates": [157.56280201857098, 42.31573449776778]}}, {"type": "Feature", "properties": {"norad_id": 66443, "name": "STARLINK-35219", "group": "last-30-days", "lat": 42.55750734365821, "lon": 160.02862856479678, "alt_km": 408.3039432326932, "timestamp": "2025-12-07T03:52:31.202856+00:00", "meta": {"OBJECT_NAME": "STARLINK-35219", "OBJECT_ID": "2025-259X", "EPOCH": "2025-12-06T13:36:31.548384", "MEAN_MOTION": 15.50724046, "ECCENTRICITY": 0.00015671, "INCLINATION": 43.0012, "RA_OF_ASC_NODE": 83.3472, "ARG_OF_PERICENTER": 246.0575, "MEAN_ANOMALY": 114.0122, "EPHEMERIS_TYPE": 0, "CLASSIFICATION_TYPE": "U", "NORAD_CAT_ID": 66443, "ELEMENT_SET_NO": 999, "REV_AT_EPOCH": 510, "BSTAR": 0.0027615281, "MEAN_MOTION_DOT": 0.00166001, "MEAN_MOTION_DDOT": 0}, "tle": {"line1": "1 66443U 25259X   25340.56703181  .00166001  00000+0  27615-2 0  9997", "line2": "2 66443  43.0012  83.3472 0001567 246.0575 114.0122 15.50724046  5101"}}, "geometry": {"type": "Point", "coordinates": [160.02862856479678, 42.55750734365821]}}, {"type": "Feature", "properties": {"norad_id": 66444, "name": "STARLINK-35360", "group": "last-30-days", "lat": 42.9642516252604, "lon": 167.92409590995558, "alt_km": 408.18935155706095, "timestamp": "2025-12-07T03:52:31.202866+00:00", "meta": {"OBJECT_NAME": "STARLINK-35360", "OBJECT_ID": "2025-259Y", "EPOCH": "2025-12-06T13:35:02.691168", "MEAN_MOTION": 15.50741615, "ECCENTRICITY": 0.00016982, "INCLINATION": 43.0009, "RA_OF_ASC_NODE": 83.3383, "ARG_OF_PERICENTER": 249.9829, "MEAN_ANOMALY": 110.0848, "EPHEMERIS_TYPE": 0, "CLASSIFICATION_TYPE": "U", "NORAD_CAT_ID": 66444, "ELEMENT_SET_NO": 999, "REV_AT_EPOCH": 521, "BSTAR": 0.0031292047, "MEAN_MOTION_DOT": 0.00188821, "MEAN_MOTION_DDOT": 0}, "tle": {"line1": "1 66444U 25259Y   25340.56600337  .00188821  00000+0  31292-2 0  9997", "line2": "2 66444  43.0009  83.3383 0001698 249.9829 110.0848 15.50741615  5212"}}, "geometry": {"type": "Point", "coordinates": [167.92409590995558, 42.9642516252604]}}, {"type": "Feature", "properties": {"norad_id": 66445, "name": "STARLINK-34698", "group": "last-30-days", "lat": 42.7540049573589, "lon": 162.65464211673748, "alt_km": 408.2796466357531, "timestamp": "2025-12-07T03:52:31.202876+00:00", "meta": {"OBJECT_NAME": "STARLINK-34698", "OBJECT_ID": "2025-259Z", "EPOCH": "2025-12-06T13:36:01.846656", "MEAN_MOTION": 15.50730706, "ECCENTRICITY": 0.00016523, "INCLINATION": 43.0011, "RA_OF_ASC_NODE": 83.3434, "ARG_OF_PERICENTER": 246.4478, "MEAN_ANOMALY": 113.6208, "EPHEMERIS_TYPE": 0, "CLASSIFICATION_TYPE": "U", "NORAD_CAT_ID": 66445, "ELEMENT_SET_NO": 999, "REV_AT_EPOCH": 510, "BSTAR": 0.0028741918, "MEAN_MOTION_DOT": 0.00172984, "MEAN_MOTION_DDOT": 0}, "tle": {"line1": "1 66445U 25259Z   25340.56668804  .00172984  00000+0  28742-2 0  9990", "line2": "2 66445  43.0011  83.3434 0001652 246.4478 113.6208 15.50730706  5101"}}, "geometry": {"type": "Point", "coordinates": [162.65464211673748, 42.7540049573589]}}]}